{
  "norad_id": 68019,
  "name": "STARLINK-36921",
  "history": [
    {
      "epoch": "2026-05-08T19:20:50.610048Z",
      "apogee_km": 466.90597657384023,
      "perigee_km": 464.1206109042887,
      "latitude_deg": -4.5583270467385224e-05,
      "longitude_deg": -78.82835802809971,
      "height_km": 469.0359145723186,
      "semi_major_axis_km": 6843.650293739064,
      "eccentricity": 0.0002035,
      "inclination_deg": 97.2869,
      "raan_deg": 78.0153,
      "arg_perigee_deg": 107.2809,
      "mean_anomaly_deg": 252.8656,
      "mean_motion_rev_day": 15.33455043
    },
    {
      "epoch": "2026-05-09T20:24:20.022336Z",
      "apogee_km": 466.96415813437943,
      "perigee_km": 464.1746634013516,
      "latitude_deg": 9.814313583746043e-06,
      "longitude_deg": -94.70012096985685,
      "height_km": 469.19259259155456,
      "semi_major_axis_km": 6843.706410767865,
      "eccentricity": 0.0002038,
      "inclination_deg": 97.2855,
      "raan_deg": 79.0452,
      "arg_perigee_deg": 111.6315,
      "mean_anomaly_deg": 248.5145,
      "mean_motion_rev_day": 15.33436182
    }
  ]
}